[{"OBJECT_NAME":"STARLINK-34115","OBJECT_ID":"2025-099W","EPOCH":"2026-03-09T07:59:27.622176","MEAN_MOTION":15.27578809,"ECCENTRICITY":0.00017804,"INCLINATION":43.0002,"RA_OF_ASC_NODE":174.6067,"ARG_OF_PERICENTER":253.7711,"MEAN_ANOMALY":106.2945,"EPHEMERIS_TYPE":0,"CLASSIFICATION_TYPE":"U","NORAD_CAT_ID":63972,"ELEMENT_SET_NO":999,"REV_AT_EPOCH":4732,"BSTAR":0.0010235909,"MEAN_MOTION_DOT":0.00028011,"MEAN_MOTION_DDOT":0},{"OBJECT_NAME":"CZ-6A DEB","OBJECT_ID":"2022-151AJB","EPOCH":"2026-02-27T14:06:27.470880","MEAN_MOTION":15.13235807,"ECCENTRICITY":0.00651829,"INCLINATION":98.7617,"RA_OF_ASC_NODE":191.4844,"ARG_OF_PERICENTER":85.1472,"MEAN_ANOMALY":275.7194,"EPHEMERIS_TYPE":0,"CLASSIFICATION_TYPE":"U","NORAD_CAT_ID":58433,"ELEMENT_SET_NO":999,"REV_AT_EPOCH":15167,"BSTAR":0.0027921214,"MEAN_MOTION_DOT":0.00052525,"MEAN_MOTION_DDOT":0}]
